{"type":"FeatureCollection","features":[{"type":"Feature","properties":{"NAME":"Vatican City","NAMEASCII":"Vatican City"},"geometry":{"type":"Point","coordinates":[12.45339,41.90328]}},{"type":"Feature","properties":{"NAME":"San Marino","NAMEASCII":"San Marino"},"geometry":{"type":"Point","coordinates":[12.44177,43.9361]}},{"type":"Feature","properties":{"NAME":"Vaduz","NAMEASCII":"Vaduz"},"geometry":{"type":"Point","coordinates":[9.51667,47.13372]}},{"type":"Feature","properties":{"NAME":"Lobamba","NAMEASCII":"Lobamba"},"geometry":{"type":"Point","coordinates":[31.2,-26.46667]}},{"type":"Feature","properties":{"NAME":"Luxembourg","NAMEASCII":"Luxembourg"},"geometry":{"type":"Point","coordinates":[6.13,49.61166]}},{"type":"Feature","properties":{"NAME":"Palikir","NAMEASCII":"Palikir"},"geometry":{"type":"Point","coordinates":[158.14997,6.91664]}},{"type":"Feature","properties":{"NAME":"Majuro","NAMEASCII":"Majuro"},"geometry":{"type":"Point","coordinates":[171.38,7.103]}},{"type":"Feature","properties":{"NAME":"Funafuti","NAMEASCII":"Funafuti"},"geometry":{"type":"Point","coordinates":[179.21665,-8.51665]}},{"type":"Feature","properties":{"NAME":"Melekeok","NAMEASCII":"Melekeok"},"geometry":{"type":"Point","coordinates":[134.62655,7.4874]}},{"type":"Feature","properties":{"NAME":"Bir Lehlou","NAMEASCII":"Bir Lehlou"},"geometry":{"type":"Point","coordinates":[-9.65252,26.11917]}},{"type":"Feature","properties":{"NAME":"Monaco","NAMEASCII":"Monaco"},"geometry":{"type":"Point","coordinates":[7.40691,43.73965]}},{"type":"Feature","properties":{"NAME":"Tarawa","NAMEASCII":"Tarawa"},"geometry":{"type":"Point","coordinates":[173.01757,1.33819]}},{"type":"Feature","properties":{"NAME":"Moroni","NAMEASCII":"Moroni"},"geometry":{"type":"Point","coordinates":[43.24024,-11.70416]}},{"type":"Feature","properties":{"NAME":"Andorra","NAMEASCII":"Andorra"},"geometry":{"type":"Point","coordinates":[1.52659,42.51075]}},{"type":"Feature","properties":{"NAME":"Port-of-Spain","NAMEASCII":"Port-of-Spain"},"geometry":{"type":"Point","coordinates":[-61.51703,10.652]}},{"type":"Feature","properties":{"NAME":"Kigali","NAMEASCII":"Kigali"},"geometry":{"type":"Point","coordinates":[30.05859,-1.95164]}},{"type":"Feature","properties":{"NAME":"Mbabane","NAMEASCII":"Mbabane"},"geometry":{"type":"Point","coordinates":[31.13333,-26.31665]}},{"type":"Feature","properties":{"NAME":"Juba","NAMEASCII":"Juba"},"geometry":{"type":"Point","coordinates":[31.58003,4.82998]}},{"type":"Feature","properties":{"NAME":"The Hague","NAMEASCII":"The Hague"},"geometry":{"type":"Point","coordinates":[4.26996,52.08004]}},{"type":"Feature","properties":{"NAME":"Ljubljana","NAMEASCII":"Ljubljana"},"geometry":{"type":"Point","coordinates":[14.51497,46.05529]}},{"type":"Feature","properties":{"NAME":"Bratislava","NAMEASCII":"Bratislava"},"geometry":{"type":"Point","coordinates":[17.11698,48.15002]}},{"type":"Feature","properties":{"NAME":"Doha","NAMEASCII":"Doha"},"geometry":{"type":"Point","coordinates":[51.53297,25.28656]}},{"type":"Feature","properties":{"NAME":"Podgorica","NAMEASCII":"Podgorica"},"geometry":{"type":"Point","coordinates":[19.26631,42.46597]}},{"type":"Feature","properties":{"NAME":"Sri Jayawardenepura Kotte","NAMEASCII":"Sri Jawewardenepura Kotte"},"geometry":{"type":"Point","coordinates":[79.94999,6.9]}},{"type":"Feature","properties":{"NAME":"Baguio","NAMEASCII":"Baguio City"},"geometry":{"type":"Point","coordinates":[120.56994,16.42999]}},{"type":"Feature","properties":{"NAME":"Dodoma","NAMEASCII":"Dodoma"},"geometry":{"type":"Point","coordinates":[35.75,-6.18331]}},{"type":"Feature","properties":{"NAME":"Bern","NAMEASCII":"Bern"},"geometry":{"type":"Point","coordinates":[7.46698,46.91668]}},{"type":"Feature","properties":{"NAME":"Laayoune","NAMEASCII":"Laayoune"},"geometry":{"type":"Point","coordinates":[-13.20001,27.14998]}},{"type":"Feature","properties":{"NAME":"Pristina","NAMEASCII":"Pristina"},"geometry":{"type":"Point","coordinates":[21.16598,42.66671]}},{"type":"Feature","properties":{"NAME":"Roseau","NAMEASCII":"Roseau"},"geometry":{"type":"Point","coordinates":[-61.38701,15.30102]}},{"type":"Feature","properties":{"NAME":"Djibouti","NAMEASCII":"Djibouti"},"geometry":{"type":"Point","coordinates":[43.148,11.59501]}},{"type":"Feature","properties":{"NAME":"Putrajaya","NAMEASCII":"Putrajaya"},"geometry":{"type":"Point","coordinates":[101.69504,2.93251]}},{"type":"Feature","properties":{"NAME":"Kyoto","NAMEASCII":"Kyoto"},"geometry":{"type":"Point","coordinates":[135.74805,35.03194]}},{"type":"Feature","properties":{"NAME":"Banjul","NAMEASCII":"Banjul"},"geometry":{"type":"Point","coordinates":[-16.5917,13.45388]}},{"type":"Feature","properties":{"NAME":"Skopje","NAMEASCII":"Skopje"},"geometry":{"type":"Point","coordinates":[21.43346,42.00001]}},{"type":"Feature","properties":{"NAME":"Bridgetown","NAMEASCII":"Bridgetown"},"geometry":{"type":"Point","coordinates":[-59.61653,13.102]}},{"type":"Feature","properties":{"NAME":"Porto-Novo","NAMEASCII":"Porto-Novo"},"geometry":{"type":"Point","coordinates":[2.61663,6.48331]}},{"type":"Feature","properties":{"NAME":"Bujumbura","NAMEASCII":"Bujumbura"},"geometry":{"type":"Point","coordinates":[29.36001,-3.37609]}},{"type":"Feature","properties":{"NAME":"Kingstown","NAMEASCII":"Kingstown"},"geometry":{"type":"Point","coordinates":[-61.22024,13.15576]}},{"type":"Feature","properties":{"NAME":"Castries","NAMEASCII":"Castries"},"geometry":{"type":"Point","coordinates":[-60.99287,14.00788]}},{"type":"Feature","properties":{"NAME":"Basseterre","NAMEASCII":"Basseterre"},"geometry":{"type":"Point","coordinates":[-62.71701,17.30203]}},{"type":"Feature","properties":{"NAME":"Port Louis","NAMEASCII":"Port Louis"},"geometry":{"type":"Point","coordinates":[57.49999,-20.16664]}},{"type":"Feature","properties":{"NAME":"Saint George's","NAMEASCII":"Saint George's"},"geometry":{"type":"Point","coordinates":[-61.74164,12.05263]}},{"type":"Feature","properties":{"NAME":"Manama","NAMEASCII":"Manama"},"geometry":{"type":"Point","coordinates":[50.58305,26.23614]}},{"type":"Feature","properties":{"NAME":"Saint John's","NAMEASCII":"Saint John's"},"geometry":{"type":"Point","coordinates":[-61.85003,17.11804]}},{"type":"Feature","properties":{"NAME":"Montevideo","NAMEASCII":"Montevideo"},"geometry":{"type":"Point","coordinates":[-56.18682,-34.90538]}},{"type":"Feature","properties":{"NAME":"Lom\u00e9","NAMEASCII":"Lome"},"geometry":{"type":"Point","coordinates":[1.22081,6.13388]}},{"type":"Feature","properties":{"NAME":"Tunis","NAMEASCII":"Tunis"},"geometry":{"type":"Point","coordinates":[10.17968,36.80278]}},{"type":"Feature","properties":{"NAME":"Abu Dhabi","NAMEASCII":"Abu Dhabi"},"geometry":{"type":"Point","coordinates":[54.36659,24.46668]}},{"type":"Feature","properties":{"NAME":"Ashgabat","NAMEASCII":"Ashgabat"},"geometry":{"type":"Point","coordinates":[58.3833,37.95]}},{"type":"Feature","properties":{"NAME":"Lusaka","NAMEASCII":"Lusaka"},"geometry":{"type":"Point","coordinates":[28.28138,-15.4147]}},{"type":"Feature","properties":{"NAME":"Harare","NAMEASCII":"Harare"},"geometry":{"type":"Point","coordinates":[31.04276,-17.81584]}},{"type":"Feature","properties":{"NAME":"Dili","NAMEASCII":"Dili"},"geometry":{"type":"Point","coordinates":[125.57946,-8.55939]}},{"type":"Feature","properties":{"NAME":"Port Vila","NAMEASCII":"Port Vila"},"geometry":{"type":"Point","coordinates":[168.31664,-17.73335]}},{"type":"Feature","properties":{"NAME":"Tegucigalpa","NAMEASCII":"Tegucigalpa"},"geometry":{"type":"Point","coordinates":[-87.21948,14.10399]}},{"type":"Feature","properties":{"NAME":"Georgetown","NAMEASCII":"Georgetown"},"geometry":{"type":"Point","coordinates":[-58.16703,6.80197]}},{"type":"Feature","properties":{"NAME":"Reykjav\u00edk","NAMEASCII":"Reykjavik"},"geometry":{"type":"Point","coordinates":[-21.93655,64.14346]}},{"type":"Feature","properties":{"NAME":"Port-au-Prince","NAMEASCII":"Port-au-Prince"},"geometry":{"type":"Point","coordinates":[-72.33798,18.54297]}},{"type":"Feature","properties":{"NAME":"Kampala","NAMEASCII":"Kampala"},"geometry":{"type":"Point","coordinates":[32.58138,0.31861]}},{"type":"Feature","properties":{"NAME":"Paramaribo","NAMEASCII":"Paramaribo"},"geometry":{"type":"Point","coordinates":[-55.16703,5.83503]}},{"type":"Feature","properties":{"NAME":"Niamey","NAMEASCII":"Niamey"},"geometry":{"type":"Point","coordinates":[2.11471,13.51865]}},{"type":"Feature","properties":{"NAME":"Dushanbe","NAMEASCII":"Dushanbe"},"geometry":{"type":"Point","coordinates":[68.77388,38.56003]}},{"type":"Feature","properties":{"NAME":"Asunci\u00f3n","NAMEASCII":"Asuncion"},"geometry":{"type":"Point","coordinates":[-57.62583,-25.29067]}},{"type":"Feature","properties":{"NAME":"Managua","NAMEASCII":"Managua"},"geometry":{"type":"Point","coordinates":[-86.27044,12.15496]}},{"type":"Feature","properties":{"NAME":"Freetown","NAMEASCII":"Freetown"},"geometry":{"type":"Point","coordinates":[-13.23616,8.47196]}},{"type":"Feature","properties":{"NAME":"Islamabad","NAMEASCII":"Islamabad"},"geometry":{"type":"Point","coordinates":[73.08063,33.68937]}},{"type":"Feature","properties":{"NAME":"Kathmandu","NAMEASCII":"Kathmandu"},"geometry":{"type":"Point","coordinates":[85.3147,27.71864]}},{"type":"Feature","properties":{"NAME":"Bloemfontein","NAMEASCII":"Bloemfontein"},"geometry":{"type":"Point","coordinates":[26.22991,-29.11999]}},{"type":"Feature","properties":{"NAME":"Pretoria","NAMEASCII":"Pretoria"},"geometry":{"type":"Point","coordinates":[28.22748,-25.70498]}},{"type":"Feature","properties":{"NAME":"Port Moresby","NAMEASCII":"Port Moresby"},"geometry":{"type":"Point","coordinates":[147.1925,-9.46471]}},{"type":"Feature","properties":{"NAME":"Honiara","NAMEASCII":"Honiara"},"geometry":{"type":"Point","coordinates":[159.94977,-9.43799]}},{"type":"Feature","properties":{"NAME":"Panama City","NAMEASCII":"Panama City"},"geometry":{"type":"Point","coordinates":[-79.53498,8.96996]}},{"type":"Feature","properties":{"NAME":"Rabat","NAMEASCII":"Rabat"},"geometry":{"type":"Point","coordinates":[-6.83641,34.02531]}},{"type":"Feature","properties":{"NAME":"Chi\u0219in\u0103u","NAMEASCII":"Chisinau"},"geometry":{"type":"Point","coordinates":[28.85771,47.00502]}},{"type":"Feature","properties":{"NAME":"Maputo","NAMEASCII":"Maputo"},"geometry":{"type":"Point","coordinates":[32.58722,-25.95333]}},{"type":"Feature","properties":{"NAME":"Mogadishu","NAMEASCII":"Mogadishu"},"geometry":{"type":"Point","coordinates":[45.36473,2.06863]}},{"type":"Feature","properties":{"NAME":"Muscat","NAMEASCII":"Muscat"},"geometry":{"type":"Point","coordinates":[58.37831,23.58518]}},{"type":"Feature","properties":{"NAME":"Colombo","NAMEASCII":"Colombo"},"geometry":{"type":"Point","coordinates":[79.85775,6.93197]}},{"type":"Feature","properties":{"NAME":"Ulaanbaatar","NAMEASCII":"Ulaanbaatar"},"geometry":{"type":"Point","coordinates":[106.91467,47.91862]}},{"type":"Feature","properties":{"NAME":"Windhoek","NAMEASCII":"Windhoek"},"geometry":{"type":"Point","coordinates":[17.08355,-22.57001]}},{"type":"Feature","properties":{"NAME":"Abuja","NAMEASCII":"Abuja"},"geometry":{"type":"Point","coordinates":[7.48951,9.05462]}},{"type":"Feature","properties":{"NAME":"Bissau","NAMEASCII":"Bissau"},"geometry":{"type":"Point","coordinates":[-15.59836,11.86502]}},{"type":"Feature","properties":{"NAME":"Amman","NAMEASCII":"Amman"},"geometry":{"type":"Point","coordinates":[35.93135,31.95197]}},{"type":"Feature","properties":{"NAME":"Vilnius","NAMEASCII":"Vilnius"},"geometry":{"type":"Point","coordinates":[25.31664,54.68337]}},{"type":"Feature","properties":{"NAME":"Riga","NAMEASCII":"Riga"},"geometry":{"type":"Point","coordinates":[24.09997,56.95002]}},{"type":"Feature","properties":{"NAME":"Bishkek","NAMEASCII":"Bishkek"},"geometry":{"type":"Point","coordinates":[74.58326,42.87503]}},{"type":"Feature","properties":{"NAME":"Maseru","NAMEASCII":"Maseru"},"geometry":{"type":"Point","coordinates":[27.48327,-29.31667]}},{"type":"Feature","properties":{"NAME":"Antananarivo","NAMEASCII":"Antananarivo"},"geometry":{"type":"Point","coordinates":[47.51468,-18.91469]}},{"type":"Feature","properties":{"NAME":"Quito","NAMEASCII":"Quito"},"geometry":{"type":"Point","coordinates":[-78.502,-0.21304]}},{"type":"Feature","properties":{"NAME":"San Jos\u00e9","NAMEASCII":"San Jose"},"geometry":{"type":"Point","coordinates":[-84.07881,9.93037]}},{"type":"Feature","properties":{"NAME":"San Salvador","NAMEASCII":"San Salvador"},"geometry":{"type":"Point","coordinates":[-89.21558,13.70328]}},{"type":"Feature","properties":{"NAME":"Kingston","NAMEASCII":"Kingston"},"geometry":{"type":"Point","coordinates":[-76.76743,17.97708]}},{"type":"Feature","properties":{"NAME":"N'Djamena","NAMEASCII":"Ndjamena"},"geometry":{"type":"Point","coordinates":[15.0472,12.11504]}},{"type":"Feature","properties":{"NAME":"Malabo","NAMEASCII":"Malabo"},"geometry":{"type":"Point","coordinates":[8.78328,3.75001]}},{"type":"Feature","properties":{"NAME":"Asmara","NAMEASCII":"Asmara"},"geometry":{"type":"Point","coordinates":[38.93332,15.33334]}},{"type":"Feature","properties":{"NAME":"Zagreb","NAMEASCII":"Zagreb"},"geometry":{"type":"Point","coordinates":[16.0,45.80001]}},{"type":"Feature","properties":{"NAME":"Tallinn","NAMEASCII":"Tallinn"},"geometry":{"type":"Point","coordinates":[24.72804,59.43388]}},{"type":"Feature","properties":{"NAME":"Lilongwe","NAMEASCII":"Lilongwe"},"geometry":{"type":"Point","coordinates":[33.7833,-13.9833]}},{"type":"Feature","properties":{"NAME":"Guatemala City","NAMEASCII":"Guatemala"},"geometry":{"type":"Point","coordinates":[-90.52891,14.62308]}},{"type":"Feature","properties":{"NAME":"Libreville","NAMEASCII":"Libreville"},"geometry":{"type":"Point","coordinates":[9.45796,0.38539]}},{"type":"Feature","properties":{"NAME":"Suva","NAMEASCII":"Suva"},"geometry":{"type":"Point","coordinates":[178.44171,-18.13302]}},{"type":"Feature","properties":{"NAME":"Valpara\u00edso","NAMEASCII":"Valparaiso"},"geometry":{"type":"Point","coordinates":[-71.61703,-33.04774]}},{"type":"Feature","properties":{"NAME":"Nouakchott","NAMEASCII":"Nouakchott"},"geometry":{"type":"Point","coordinates":[-15.97534,18.08643]}},{"type":"Feature","properties":{"NAME":"Bamako","NAMEASCII":"Bamako"},"geometry":{"type":"Point","coordinates":[-8.00198,12.65196]}},{"type":"Feature","properties":{"NAME":"Beirut","NAMEASCII":"Beirut"},"geometry":{"type":"Point","coordinates":[35.50776,33.87392]}},{"type":"Feature","properties":{"NAME":"Tbilisi","NAMEASCII":"Tbilisi"},"geometry":{"type":"Point","coordinates":[44.78885,41.72696]}},{"type":"Feature","properties":{"NAME":"Nur-Sultan","NAMEASCII":"Astana"},"geometry":{"type":"Point","coordinates":[71.42777,51.18113]}},{"type":"Feature","properties":{"NAME":"Vientiane","NAMEASCII":"Vientiane"},"geometry":{"type":"Point","coordinates":[102.59998,17.96669]}},{"type":"Feature","properties":{"NAME":"Brazzaville","NAMEASCII":"Brazzaville"},"geometry":{"type":"Point","coordinates":[15.28274,-4.25724]}},{"type":"Feature","properties":{"NAME":"Conakry","NAMEASCII":"Conakry"},"geometry":{"type":"Point","coordinates":[-13.68218,9.53347]}},{"type":"Feature","properties":{"NAME":"Yamoussoukro","NAMEASCII":"Yamoussoukro"},"geometry":{"type":"Point","coordinates":[-5.2755,6.81838]}},{"type":"Feature","properties":{"NAME":"Ottawa","NAMEASCII":"Ottawa"},"geometry":{"type":"Point","coordinates":[-75.70196,45.41864]}},{"type":"Feature","properties":{"NAME":"Belgrade","NAMEASCII":"Belgrade"},"geometry":{"type":"Point","coordinates":[20.46605,44.82059]}},{"type":"Feature","properties":{"NAME":"Bandar Seri Begawan","NAMEASCII":"Bandar Seri Begawan"},"geometry":{"type":"Point","coordinates":[114.93328,4.88333]}},{"type":"Feature","properties":{"NAME":"Sucre","NAMEASCII":"Sucre"},"geometry":{"type":"Point","coordinates":[-65.25952,-19.04097]}},{"type":"Feature","properties":{"NAME":"Belmopan","NAMEASCII":"Belmopan"},"geometry":{"type":"Point","coordinates":[-88.76707,17.25203]}},{"type":"Feature","properties":{"NAME":"Bangui","NAMEASCII":"Bangui"},"geometry":{"type":"Point","coordinates":[18.55829,4.36664]}},{"type":"Feature","properties":{"NAME":"Yaound\u00e9","NAMEASCII":"Yaounde"},"geometry":{"type":"Point","coordinates":[11.5147,3.86865]}},{"type":"Feature","properties":{"NAME":"Tirana","NAMEASCII":"Tirana"},"geometry":{"type":"Point","coordinates":[19.81888,41.32754]}},{"type":"Feature","properties":{"NAME":"Yerevan","NAMEASCII":"Yerevan"},"geometry":{"type":"Point","coordinates":[44.51161,40.1831]}},{"type":"Feature","properties":{"NAME":"Baku","NAMEASCII":"Baku"},"geometry":{"type":"Point","coordinates":[49.86027,40.39722]}},{"type":"Feature","properties":{"NAME":"Phnom Penh","NAMEASCII":"Phnom Penh"},"geometry":{"type":"Point","coordinates":[104.91469,11.55198]}},{"type":"Feature","properties":{"NAME":"La Paz","NAMEASCII":"La Paz"},"geometry":{"type":"Point","coordinates":[-68.15193,-16.49603]}},{"type":"Feature","properties":{"NAME":"Cotonou","NAMEASCII":"Cotonou"},"geometry":{"type":"Point","coordinates":[2.40435,6.36298]}},{"type":"Feature","properties":{"NAME":"Sofia","NAMEASCII":"Sofia"},"geometry":{"type":"Point","coordinates":[23.31471,42.6853]}},{"type":"Feature","properties":{"NAME":"Minsk","NAMEASCII":"Minsk"},"geometry":{"type":"Point","coordinates":[27.56468,53.90192]}},{"type":"Feature","properties":{"NAME":"Thimphu","NAMEASCII":"Thimphu"},"geometry":{"type":"Point","coordinates":[89.63901,27.47299]}},{"type":"Feature","properties":{"NAME":"Gaborone","NAMEASCII":"Gaborone"},"geometry":{"type":"Point","coordinates":[25.91195,-24.64631]}},{"type":"Feature","properties":{"NAME":"Canberra","NAMEASCII":"Canberra"},"geometry":{"type":"Point","coordinates":[149.12903,-35.28303]}},{"type":"Feature","properties":{"NAME":"Ouagadougou","NAMEASCII":"Ouagadougou"},"geometry":{"type":"Point","coordinates":[-1.52667,12.37226]}},{"type":"Feature","properties":{"NAME":"Sarajevo","NAMEASCII":"Sarajevo"},"geometry":{"type":"Point","coordinates":[18.383,43.85002]}},{"type":"Feature","properties":{"NAME":"Naypyidaw","NAMEASCII":"Naypyidaw"},"geometry":{"type":"Point","coordinates":[96.11667,19.7685]}},{"type":"Feature","properties":{"NAME":"Nuku'alofa","NAMEASCII":"Nukualofa"},"geometry":{"type":"Point","coordinates":[-175.22056,-21.13851]}},{"type":"Feature","properties":{"NAME":"Hargeisa","NAMEASCII":"Hargeysa"},"geometry":{"type":"Point","coordinates":[44.06531,9.56002]}},{"type":"Feature","properties":{"NAME":"Victoria","NAMEASCII":"Victoria"},"geometry":{"type":"Point","coordinates":[55.44999,-4.61663]}},{"type":"Feature","properties":{"NAME":"S\u00e3o Tom\u00e9","NAMEASCII":"Sao Tome"},"geometry":{"type":"Point","coordinates":[6.72965,0.33747]}},{"type":"Feature","properties":{"NAME":"Apia","NAMEASCII":"Apia"},"geometry":{"type":"Point","coordinates":[-171.7686,-13.83572]}},{"type":"Feature","properties":{"NAME":"Valletta","NAMEASCII":"Valletta"},"geometry":{"type":"Point","coordinates":[14.51471,35.89973]}},{"type":"Feature","properties":{"NAME":"Mal\u00e9","NAMEASCII":"Male"},"geometry":{"type":"Point","coordinates":[73.5089,4.17204]}},{"type":"Feature","properties":{"NAME":"Jerusalem","NAMEASCII":"Jerusalem"},"geometry":{"type":"Point","coordinates":[35.20663,31.77841]}},{"type":"Feature","properties":{"NAME":"Praia","NAMEASCII":"Praia"},"geometry":{"type":"Point","coordinates":[-23.51669,14.9167]}},{"type":"Feature","properties":{"NAME":"Nassau","NAMEASCII":"Nassau"},"geometry":{"type":"Point","coordinates":[-77.35004,25.08339]}},{"type":"Feature","properties":{"NAME":"Nicosia","NAMEASCII":"Nicosia"},"geometry":{"type":"Point","coordinates":[33.36664,35.16668]}},{"type":"Feature","properties":{"NAME":"Wellington","NAMEASCII":"Wellington"},"geometry":{"type":"Point","coordinates":[174.7772,-41.29207]}},{"type":"Feature","properties":{"NAME":"Hanoi","NAMEASCII":"Hanoi"},"geometry":{"type":"Point","coordinates":[105.84807,21.03527]}},{"type":"Feature","properties":{"NAME":"Ankara","NAMEASCII":"Ankara"},"geometry":{"type":"Point","coordinates":[32.86245,39.92918]}},{"type":"Feature","properties":{"NAME":"Budapest","NAMEASCII":"Budapest"},"geometry":{"type":"Point","coordinates":[19.08138,47.50195]}},{"type":"Feature","properties":{"NAME":"Sanaa","NAMEASCII":"Sanaa"},"geometry":{"type":"Point","coordinates":[44.20465,15.35668]}},{"type":"Feature","properties":{"NAME":"Bucharest","NAMEASCII":"Bucharest"},"geometry":{"type":"Point","coordinates":[26.098,44.43532]}},{"type":"Feature","properties":{"NAME":"Damascus","NAMEASCII":"Damascus"},"geometry":{"type":"Point","coordinates":[36.29805,33.50198]}},{"type":"Feature","properties":{"NAME":"Lisbon","NAMEASCII":"Lisbon"},"geometry":{"type":"Point","coordinates":[-9.14681,38.72467]}},{"type":"Feature","properties":{"NAME":"Khartoum","NAMEASCII":"Khartoum"},"geometry":{"type":"Point","coordinates":[32.53223,15.59002]}},{"type":"Feature","properties":{"NAME":"Oslo","NAMEASCII":"Oslo"},"geometry":{"type":"Point","coordinates":[10.74803,59.91864]}},{"type":"Feature","properties":{"NAME":"Warsaw","NAMEASCII":"Warsaw"},"geometry":{"type":"Point","coordinates":[21.00535,52.23087]}},{"type":"Feature","properties":{"NAME":"Pyongyang","NAMEASCII":"Pyongyang"},"geometry":{"type":"Point","coordinates":[125.75275,39.02139]}},{"type":"Feature","properties":{"NAME":"Dar es Salaam","NAMEASCII":"Dar es Salaam"},"geometry":{"type":"Point","coordinates":[39.2664,-6.79807]}},{"type":"Feature","properties":{"NAME":"Dublin","NAMEASCII":"Dublin"},"geometry":{"type":"Point","coordinates":[-6.25698,53.34673]}},{"type":"Feature","properties":{"NAME":"Monrovia","NAMEASCII":"Monrovia"},"geometry":{"type":"Point","coordinates":[-10.79966,6.31458]}},{"type":"Feature","properties":{"NAME":"Kuala Lumpur","NAMEASCII":"Kuala Lumpur"},"geometry":{"type":"Point","coordinates":[101.6887,3.1398]}},{"type":"Feature","properties":{"NAME":"Havana","NAMEASCII":"Havana"},"geometry":{"type":"Point","coordinates":[-82.36613,23.1339]}},{"type":"Feature","properties":{"NAME":"Prague","NAMEASCII":"Prague"},"geometry":{"type":"Point","coordinates":[14.42294,50.08697]}},{"type":"Feature","properties":{"NAME":"Kuwait City","NAMEASCII":"Kuwait City"},"geometry":{"type":"Point","coordinates":[47.97635,29.37166]}},{"type":"Feature","properties":{"NAME":"Santo Domingo","NAMEASCII":"Santo Domingo"},"geometry":{"type":"Point","coordinates":[-69.92974,18.47075]}},{"type":"Feature","properties":{"NAME":"Accra","NAMEASCII":"Accra"},"geometry":{"type":"Point","coordinates":[-0.21866,5.55198]}},{"type":"Feature","properties":{"NAME":"Tripoli","NAMEASCII":"Tripoli"},"geometry":{"type":"Point","coordinates":[13.18001,32.8925]}},{"type":"Feature","properties":{"NAME":"Tel Aviv","NAMEASCII":"Tel Aviv-Yafo"},"geometry":{"type":"Point","coordinates":[34.76807,32.08194]}},{"type":"Feature","properties":{"NAME":"Helsinki","NAMEASCII":"Helsinki"},"geometry":{"type":"Point","coordinates":[24.93246,60.1638]}},{"type":"Feature","properties":{"NAME":"K\u00f8benhavn","NAMEASCII":"Kobenhavn"},"geometry":{"type":"Point","coordinates":[12.56154,55.68051]}},{"type":"Feature","properties":{"NAME":"Abidjan","NAMEASCII":"Abidjan"},"geometry":{"type":"Point","coordinates":[-4.02021,5.32313]}},{"type":"Feature","properties":{"NAME":"Bras\u00edlia","NAMEASCII":"Brasilia"},"geometry":{"type":"Point","coordinates":[-47.918,-15.78139]}},{"type":"Feature","properties":{"NAME":"Brussels","NAMEASCII":"Brussels"},"geometry":{"type":"Point","coordinates":[4.33137,50.83526]}},{"type":"Feature","properties":{"NAME":"Dhaka","NAMEASCII":"Dhaka"},"geometry":{"type":"Point","coordinates":[90.40663,23.72501]}},{"type":"Feature","properties":{"NAME":"Luanda","NAMEASCII":"Luanda"},"geometry":{"type":"Point","coordinates":[13.23248,-8.83634]}},{"type":"Feature","properties":{"NAME":"Algiers","NAMEASCII":"Algiers"},"geometry":{"type":"Point","coordinates":[3.04861,36.76501]}},{"type":"Feature","properties":{"NAME":"Yangon","NAMEASCII":"Rangoon"},"geometry":{"type":"Point","coordinates":[96.16473,16.7853]}},{"type":"Feature","properties":{"NAME":"San Francisco","NAMEASCII":"San Francisco"},"geometry":{"type":"Point","coordinates":[-122.3996,37.78426]}},{"type":"Feature","properties":{"NAME":"Denver","NAMEASCII":"Denver"},"geometry":{"type":"Point","coordinates":[-104.98596,39.74113]}},{"type":"Feature","properties":{"NAME":"Houston","NAMEASCII":"Houston"},"geometry":{"type":"Point","coordinates":[-95.34844,29.74127]}},{"type":"Feature","properties":{"NAME":"Miami","NAMEASCII":"Miami"},"geometry":{"type":"Point","coordinates":[-80.22605,25.78956]}},{"type":"Feature","properties":{"NAME":"Atlanta","NAMEASCII":"Atlanta"},"geometry":{"type":"Point","coordinates":[-84.36764,33.73946]}},{"type":"Feature","properties":{"NAME":"Chicago","NAMEASCII":"Chicago"},"geometry":{"type":"Point","coordinates":[-87.63524,41.84796]}},{"type":"Feature","properties":{"NAME":"Caracas","NAMEASCII":"Caracas"},"geometry":{"type":"Point","coordinates":[-66.91898,10.50294]}},{"type":"Feature","properties":{"NAME":"Kyiv","NAMEASCII":"Kiev"},"geometry":{"type":"Point","coordinates":[30.51468,50.43531]}},{"type":"Feature","properties":{"NAME":"Dubai","NAMEASCII":"Dubai"},"geometry":{"type":"Point","coordinates":[55.28695,25.21491]}},{"type":"Feature","properties":{"NAME":"Tashkent","NAMEASCII":"Tashkent"},"geometry":{"type":"Point","coordinates":[69.26882,41.30383]}},{"type":"Feature","properties":{"NAME":"Madrid","NAMEASCII":"Madrid"},"geometry":{"type":"Point","coordinates":[-3.6853,40.40197]}},{"type":"Feature","properties":{"NAME":"Geneva","NAMEASCII":"Geneva"},"geometry":{"type":"Point","coordinates":[6.14003,46.21001]}},{"type":"Feature","properties":{"NAME":"Stockholm","NAMEASCII":"Stockholm"},"geometry":{"type":"Point","coordinates":[18.0663,59.32413]}},{"type":"Feature","properties":{"NAME":"Bangkok","NAMEASCII":"Bangkok"},"geometry":{"type":"Point","coordinates":[100.5147,13.75194]}},{"type":"Feature","properties":{"NAME":"Lima","NAMEASCII":"Lima"},"geometry":{"type":"Point","coordinates":[-77.05201,-12.04607]}},{"type":"Feature","properties":{"NAME":"Dakar","NAMEASCII":"Dakar"},"geometry":{"type":"Point","coordinates":[-17.47508,14.71778]}},{"type":"Feature","properties":{"NAME":"Johannesburg","NAMEASCII":"Johannesburg"},"geometry":{"type":"Point","coordinates":[28.02806,-26.1681]}},{"type":"Feature","properties":{"NAME":"Amsterdam","NAMEASCII":"Amsterdam"},"geometry":{"type":"Point","coordinates":[4.91469,52.35191]}},{"type":"Feature","properties":{"NAME":"Casablanca","NAMEASCII":"Casablanca"},"geometry":{"type":"Point","coordinates":[-7.61831,33.60192]}},{"type":"Feature","properties":{"NAME":"Seoul","NAMEASCII":"Seoul"},"geometry":{"type":"Point","coordinates":[126.99778,37.56829]}},{"type":"Feature","properties":{"NAME":"Manila","NAMEASCII":"Manila"},"geometry":{"type":"Point","coordinates":[120.98027,14.6061]}},{"type":"Feature","properties":{"NAME":"Monterrey","NAMEASCII":"Monterrey"},"geometry":{"type":"Point","coordinates":[-100.33193,25.67194]}},{"type":"Feature","properties":{"NAME":"Berlin","NAMEASCII":"Berlin"},"geometry":{"type":"Point","coordinates":[13.3996,52.52376]}},{"type":"Feature","properties":{"NAME":"\u00dcr\u00fcmqi","NAMEASCII":"Urumqi"},"geometry":{"type":"Point","coordinates":[87.57306,43.80696]}},{"type":"Feature","properties":{"NAME":"Chengdu","NAMEASCII":"Chengdu"},"geometry":{"type":"Point","coordinates":[104.06807,30.67195]}},{"type":"Feature","properties":{"NAME":"\u014csaka","NAMEASCII":"Osaka"},"geometry":{"type":"Point","coordinates":[135.50375,34.69109]}},{"type":"Feature","properties":{"NAME":"Kinshasa","NAMEASCII":"Kinshasa"},"geometry":{"type":"Point","coordinates":[15.31303,-4.32778]}},{"type":"Feature","properties":{"NAME":"New Delhi","NAMEASCII":"New Delhi"},"geometry":{"type":"Point","coordinates":[77.19998,28.60002]}},{"type":"Feature","properties":{"NAME":"Bengaluru","NAMEASCII":"Bengaluru"},"geometry":{"type":"Point","coordinates":[77.55806,12.97194]}},{"type":"Feature","properties":{"NAME":"Athens","NAMEASCII":"Athens"},"geometry":{"type":"Point","coordinates":[23.73137,37.98527]}},{"type":"Feature","properties":{"NAME":"Baghdad","NAMEASCII":"Baghdad"},"geometry":{"type":"Point","coordinates":[44.39192,33.34059]}},{"type":"Feature","properties":{"NAME":"Addis Ababa","NAMEASCII":"Addis Ababa"},"geometry":{"type":"Point","coordinates":[38.69806,9.03526]}},{"type":"Feature","properties":{"NAME":"Tehran","NAMEASCII":"Tehran"},"geometry":{"type":"Point","coordinates":[51.4224,35.67389]}},{"type":"Feature","properties":{"NAME":"Vancouver","NAMEASCII":"Vancouver"},"geometry":{"type":"Point","coordinates":[-123.12359,49.27536]}},{"type":"Feature","properties":{"NAME":"Toronto","NAMEASCII":"Toronto"},"geometry":{"type":"Point","coordinates":[-79.38946,43.66465]}},{"type":"Feature","properties":{"NAME":"Buenos Aires","NAMEASCII":"Buenos Aires"},"geometry":{"type":"Point","coordinates":[-58.43251,-34.61071]}},{"type":"Feature","properties":{"NAME":"Kabul","NAMEASCII":"Kabul"},"geometry":{"type":"Point","coordinates":[69.18131,34.51864]}},{"type":"Feature","properties":{"NAME":"Vienna","NAMEASCII":"Vienna"},"geometry":{"type":"Point","coordinates":[16.36469,48.20196]}},{"type":"Feature","properties":{"NAME":"Melbourne","NAMEASCII":"Melbourne"},"geometry":{"type":"Point","coordinates":[144.97307,-37.81809]}},{"type":"Feature","properties":{"NAME":"Taipei","NAMEASCII":"Taipei"},"geometry":{"type":"Point","coordinates":[121.56833,25.03583]}},{"type":"Feature","properties":{"NAME":"Auckland","NAMEASCII":"Auckland"},"geometry":{"type":"Point","coordinates":[174.76303,-36.84806]}},{"type":"Feature","properties":{"NAME":"Los Angeles","NAMEASCII":"Los Angeles"},"geometry":{"type":"Point","coordinates":[-118.23199,34.04922]}},{"type":"Feature","properties":{"NAME":"Washington,  D.C.","NAMEASCII":"Washington, D.C."},"geometry":{"type":"Point","coordinates":[-77.01136,38.90149]}},{"type":"Feature","properties":{"NAME":"New York","NAMEASCII":"New York"},"geometry":{"type":"Point","coordinates":[-73.99572,40.72156]}},{"type":"Feature","properties":{"NAME":"London","NAMEASCII":"London"},"geometry":{"type":"Point","coordinates":[-0.11867,51.50194]}},{"type":"Feature","properties":{"NAME":"Istanbul","NAMEASCII":"Istanbul"},"geometry":{"type":"Point","coordinates":[28.97428,41.0176]}},{"type":"Feature","properties":{"NAME":"Riyadh","NAMEASCII":"Riyadh"},"geometry":{"type":"Point","coordinates":[46.72049,24.6345]}},{"type":"Feature","properties":{"NAME":"Cape Town","NAMEASCII":"Cape Town"},"geometry":{"type":"Point","coordinates":[18.43304,-33.91806]}},{"type":"Feature","properties":{"NAME":"Moscow","NAMEASCII":"Moscow"},"geometry":{"type":"Point","coordinates":[37.61358,55.75411]}},{"type":"Feature","properties":{"NAME":"Mexico City","NAMEASCII":"Mexico City"},"geometry":{"type":"Point","coordinates":[-99.13293,19.44439]}},{"type":"Feature","properties":{"NAME":"Lagos","NAMEASCII":"Lagos"},"geometry":{"type":"Point","coordinates":[3.38958,6.44521]}},{"type":"Feature","properties":{"NAME":"Rome","NAMEASCII":"Rome"},"geometry":{"type":"Point","coordinates":[12.48131,41.8979]}},{"type":"Feature","properties":{"NAME":"Beijing","NAMEASCII":"Beijing"},"geometry":{"type":"Point","coordinates":[116.3942,39.90172]}},{"type":"Feature","properties":{"NAME":"Nairobi","NAMEASCII":"Nairobi"},"geometry":{"type":"Point","coordinates":[36.81471,-1.2814]}},{"type":"Feature","properties":{"NAME":"Jakarta","NAMEASCII":"Jakarta"},"geometry":{"type":"Point","coordinates":[106.82749,-6.17247]}},{"type":"Feature","properties":{"NAME":"Bogota","NAMEASCII":"Bogota"},"geometry":{"type":"Point","coordinates":[-74.08529,4.59837]}},{"type":"Feature","properties":{"NAME":"Cairo","NAMEASCII":"Cairo"},"geometry":{"type":"Point","coordinates":[31.24802,30.05191]}},{"type":"Feature","properties":{"NAME":"Shanghai","NAMEASCII":"Shanghai"},"geometry":{"type":"Point","coordinates":[121.43456,31.2184]}},{"type":"Feature","properties":{"NAME":"Tokyo","NAMEASCII":"Tokyo"},"geometry":{"type":"Point","coordinates":[139.74946,35.68696]}},{"type":"Feature","properties":{"NAME":"Mumbai","NAMEASCII":"Mumbai"},"geometry":{"type":"Point","coordinates":[72.87584,19.06841]}},{"type":"Feature","properties":{"NAME":"Paris","NAMEASCII":"Paris"},"geometry":{"type":"Point","coordinates":[2.35299,48.85809]}},{"type":"Feature","properties":{"NAME":"Santiago","NAMEASCII":"Santiago"},"geometry":{"type":"Point","coordinates":[-70.6505,-33.4402]}},{"type":"Feature","properties":{"NAME":"Kolkata","NAMEASCII":"Kolkata"},"geometry":{"type":"Point","coordinates":[88.36913,22.56958]}},{"type":"Feature","properties":{"NAME":"Rio de Janeiro","NAMEASCII":"Rio de Janeiro"},"geometry":{"type":"Point","coordinates":[-43.21212,-22.90731]}},{"type":"Feature","properties":{"NAME":"S\u00e3o Paulo","NAMEASCII":"Sao Paulo"},"geometry":{"type":"Point","coordinates":[-46.62697,-23.55673]}},{"type":"Feature","properties":{"NAME":"Sydney","NAMEASCII":"Sydney"},"geometry":{"type":"Point","coordinates":[151.21255,-33.87137]}},{"type":"Feature","properties":{"NAME":"Singapore","NAMEASCII":"Singapore"},"geometry":{"type":"Point","coordinates":[103.85388,1.29498]}},{"type":"Feature","properties":{"NAME":"Hong Kong","NAMEASCII":"Hong Kong"},"geometry":{"type":"Point","coordinates":[114.18306,22.30693]}}]}